[
  {
    "id": "5eb0e4b5b6c3bb0006c1bb30",
    "spaceTrack": {
      "CCSDS_OMM_VERS": "2.0",
      "COMMENT": "GENERATED VIA SPACE-TRACK.ORG",
      "CREATION_DATE": "2021-02-28T12:34:56",
      "ORIGINATOR": "18 SPCS",
      "OBJECT_NAME": "STARLINK-1007",
      "OBJECT_ID": "2021-012A",
      "CENTER_NAME": "EARTH",
      "REF_FRAME": "EME2000",
      "TIME_SYSTEM": "UTC",
      "MEAN_MOTION": 15.06403782,
      "ECCENTRICITY": 0.0001406,
      "INCLINATION": 53.0543,
      "RA_OF_ASC_NODE": 167.6259,
      "ARG_OF_PERICENTER": 91.5802,
      "MEAN_ANOMALY": 268.5545,
      "EPOCH": "2021-03-03T12:34:56.000Z",
      "REV_AT_EPOCH": 14,
      "BSTAR": 0.0001,
      "MEAN_MOTION_DOT": 0.000013,
      "MEAN_MOTION_DDOT": 0
    },
    "launch": "5eb87ce3ffd86e000604b33a",
    "version": "v1.0"
  },
  {
    "id": "5eb0e4b5b6c3bb0006c1bb31",
    "spaceTrack": {
      "CCSDS_OMM_VERS": "2.0",
      "COMMENT": "GENERATED VIA SPACE-TRACK.ORG",
      "CREATION_DATE": "2021-03-01T08:00:00",
      "ORIGINATOR": "18 SPCS",
      "OBJECT_NAME": "STARLINK-2003",
      "OBJECT_ID": "2021-017B",
      "CENTER_NAME": "EARTH",
      "REF_FRAME": "EME2000",
      "TIME_SYSTEM": "UTC",
      "MEAN_MOTION": 15.06412345,
      "ECCENTRICITY": 0.0001502,
      "INCLINATION": 53.0544,
      "RA_OF_ASC_NODE": 168.1234,
      "ARG_OF_PERICENTER": 92.1234,
      "MEAN_ANOMALY": 269.1234,
      "EPOCH": "2021-03-04T12:34:56.000Z",
      "REV_AT_EPOCH": 28,
      "BSTAR": 0.00009,
      "MEAN_MOTION_DOT": 0.000012,
      "MEAN_MOTION_DDOT": 0
    },
    "launch": "5eb87ce3ffd86e000604b33a",
    "version": "v1.0"
  },
  {
    "id": "5eb0e4b5b6c3bb0006c1bb32",
    "spaceTrack": {
      "CCSDS_OMM_VERS": "2.0",
      "COMMENT": "GENERATED VIA SPACE-TRACK.ORG",
      "CREATION_DATE": "2021-06-15T10:00:00",
      "ORIGINATOR": "18 SPCS",
      "OBJECT_NAME": "STARLINK-3001",
      "OBJECT_ID": "2021-044C",
      "CENTER_NAME": "EARTH",
      "REF_FRAME": "EME2000",
      "TIME_SYSTEM": "UTC",
      "MEAN_MOTION": 14.5,
      "ECCENTRICITY": 0.0002,
      "INCLINATION": 70.0,
      "RA_OF_ASC_NODE": 45.0,
      "ARG_OF_PERICENTER": 10.0,
      "MEAN_ANOMALY": 100.0,
      "EPOCH": "2021-06-16T00:00:00.000Z",
      "REV_AT_EPOCH": 5,
      "BSTAR": 0.00012,
      "MEAN_MOTION_DOT": 0.00001,
      "MEAN_MOTION_DDOT": 0
    },
    "launch": "5eb87ce3ffd86e000604b33a",
    "version": "v1.5"
  },
  {
    "id": "5eb0e4b5b6c3bb0006c1bb33",
    "spaceTrack": {
      "CCSDS_OMM_VERS": "2.0",
      "COMMENT": "GENERATED VIA SPACE-TRACK.ORG",
      "CREATION_DATE": "2022-01-10T14:00:00",
      "ORIGINATOR": "18 SPCS",
      "OBJECT_NAME": "STARLINK-4005",
      "OBJECT_ID": "2022-001A",
      "CENTER_NAME": "EARTH",
      "REF_FRAME": "EME2000",
      "TIME_SYSTEM": "UTC",
      "MEAN_MOTION": 14.8,
      "ECCENTRICITY": 0.00018,
      "INCLINATION": 53.2,
      "RA_OF_ASC_NODE": 200.0,
      "ARG_OF_PERICENTER": 85.0,
      "MEAN_ANOMALY": 270.0,
      "EPOCH": "2022-01-11T00:00:00.000Z",
      "REV_AT_EPOCH": 10,
      "BSTAR": 0.00011,
      "MEAN_MOTION_DOT": 0.000011,
      "MEAN_MOTION_DDOT": 0
    },
    "launch": "5eb87ce3ffd86e000604b33a",
    "version": "v2.0 Mini"
  },
  {
    "id": "5eb0e4b5b6c3bb0006c1bb34",
    "spaceTrack": {
      "CCSDS_OMM_VERS": "2.0",
      "COMMENT": "GENERATED VIA SPACE-TRACK.ORG",
      "CREATION_DATE": "2022-09-20T09:30:00",
      "ORIGINATOR": "18 SPCS",
      "OBJECT_NAME": "STARLINK-5002",
      "OBJECT_ID": "2022-123D",
      "CENTER_NAME": "EARTH",
      "REF_FRAME": "EME2000",
      "TIME_SYSTEM": "UTC",
      "MEAN_MOTION": 14.2,
      "ECCENTRICITY": 0.00025,
      "INCLINATION": 97.6,
      "RA_OF_ASC_NODE": 300.0,
      "ARG_OF_PERICENTER": 15.0,
      "MEAN_ANOMALY": 180.0,
      "EPOCH": "2022-09-21T00:00:00.000Z",
      "REV_AT_EPOCH": 8,
      "BSTAR": 0.00008,
      "MEAN_MOTION_DOT": 0.000009,
      "MEAN_MOTION_DDOT": 0
    },
    "launch": "5eb87ce3ffd86e000604b33a",
    "version": "v2.0 Mini"
  }
]
